{"spkid": "50842658", "covariance": {"labels": ["e", "q", "tp", "node", "peri", "i"], "data": [["2.226617616645593E-15", "-2.272050743215802E-15", "-2.457845204851264E-12", "-1.590744883848966E-14", "-1.428529741073517E-12", "2.118612373041064E-13"], ["-2.272050743215802E-15", "2.462961633868593E-15", "1.603062303509923E-12", "1.842328286028916E-14", "9.376143338728699E-13", "-1.372646240166525E-13"], ["-2.457845204851264E-12", "1.603062303509923E-12", "9.459042481996294E-9", "3.537700352223824E-11", "5.488404878627622E-9", "-8.299510617545218E-10"], ["-1.590744883848966E-14", "1.842328286028916E-14", "3.537700352223824E-11", "8.993326461191464E-10", "-8.672590477679398E-10", "1.486284874055772E-10"], ["-1.428529741073517E-12", "9.376143338728699E-13", "5.488404878627622E-9", "-8.672590477679398E-10", "4.072263956454453E-9", "-6.322609991770636E-10"], ["2.118612373041064E-13", "-1.372646240166525E-13", "-8.299510617545218E-10", "1.486284874055772E-10", "-6.322609991770636E-10", "1.253728279543192E-10"]], "elements": [{"label": "e", "sigma": 4.71870492470719e-08, "name": "e", "units": null, "value": ".2774432954536", "title": "eccentricity"}, {"label": "q", "sigma": 4.96282342408895e-08, "name": "q", "value": ".9329327465090796", "title": "perihelion distance", "units": "au"}, {"title": "time of perihelion passage", "value": "2458002.254439730501", "units": "TDB", "name": "tp", "sigma": 9.7257608864275e-05, "label": "tp"}, {"label": "node", "name": "om", "sigma": 2.99888753726969e-05, "value": "217.7018352469556", "title": "longitude of the ascending node", "units": "deg"}, {"label": "peri", "units": "deg", "title": "argument of perihelion", "value": "296.6498458301644", "sigma": 6.38142927286235e-05, "name": "w"}, {"name": "i", "sigma": 1.11970008464016e-05, "units": "deg", "title": "inclination", "value": "8.672928232499013", "label": "i"}], "epoch": "2457971.5"}, "elements": [{"title": "eccentricity", "value": ".2772914681080097", "units": null, "sigma": "4.7748E-8", "name": "e", "label": "e"}, {"label": "a", "sigma": "2.5175E-8", "name": "a", "value": "1.290657073753507", "title": "semi-major axis", "units": "au"}, {"label": "q", "value": ".9327688789484093", "title": "perihelion distance", "units": "au", "sigma": "4.9887E-8", "name": "q"}, {"label": "i", "name": "i", "sigma": "1.1165E-5", "units": "deg", "title": "inclination; angle with respect to x-y ecliptic plane", "value": "8.676610376708309"}, {"label": "node", "units": "deg", "title": "longitude of the ascending node", "value": "217.5845015827368", "sigma": "3.0055E-5", "name": "om"}, {"label": "peri", "sigma": "6.3625E-5", "name": "w", "units": "deg", "value": "296.7066405373797", "title": "argument of perihelion"}, {"sigma": "2.4428E-5", "name": "ma", "title": "mean anomaly", "value": "349.4541945703551", "units": "deg", "label": "M"}, {"name": "tp", "sigma": "3.639E-5", "units": "TDB", "value": "2461216.188881380418", "title": "time of perihelion passage", "label": "tp"}, {"label": "period", "units": "d", "title": "sidereal orbital period", "value": "535.568130346282", "name": "per", "sigma": "1.567E-5"}, {"value": ".6721833873259692", "title": "mean motion", "units": "deg/d", "name": "n", "sigma": "1.9667E-8", "label": "n"}, {"label": "Q", "sigma": "3.2156E-8", "name": "ad", "units": "au", "title": "aphelion distance", "value": "1.648545268558605"}], "epoch": "2461200.5"}